NORAD_CAT_ID,OBJECT_NAME,OBJECT_TYPE,EPOCH,MEAN_MOTION,ECCENTRICITY,INCLINATION,RA_OF_ASC_NODE,ARG_OF_PERICENTER,MEAN_ANOMALY,BSTAR,MEAN_MOTION_DOT,MEAN_MOTION_DDOT,TLE_LINE0,TLE_LINE1,TLE_LINE2,SEMIMAJOR_AXIS,PERIOD,APOGEE,PERIGEE,DECAYED
55674.0,STARLINK-5462,PAYLOAD,2024-02-11 20:51:44,14.98333093,0.0002781,69.9991,272.5291,269.3809,90.7032,3.9861e-05,3.83e-06,0.0,0 STARLINK-5462,1 55674U 23021AY  24042.86926515  .00000383  00000-0  39861-4 0  9994,2 55674  69.9991 272.5291 0002781 269.3809  90.7032 14.98333093 55627,6950.183,96.107,573.981,570.115,0.0
55674.0,STARLINK-5462,PAYLOAD,2024-02-11 22:27:52,14.98333991,0.0002757,69.9991,272.3606,269.0341,91.0503,5.1137e-05,5.17e-06,0.0,0 STARLINK-5462,1 55674U 23021AY  24042.93602409  .00000517  00000-0  51137-4 0  9994,2 55674  69.9991 272.3606 0002757 269.0341  91.0503 14.98333991 55934,6950.181,96.107,573.962,570.129,0.0
55674.0,STARLINK-5462,PAYLOAD,2024-02-12 14:29:13,14.98332168,0.0002637,69.9993,270.6781,257.6066,102.4798,2.9026e-05,2.53e-06,0.0,0 STARLINK-5462,1 55674U 23021AY  24043.60362436  .00000253  00000-0  29026-4 0  9991,2 55674  69.9993 270.6781 0002637 257.6066 102.4798 14.98332168 56035,6950.186,96.107,573.884,570.218,0.0
55674.0,STARLINK-5462,PAYLOAD,2024-02-12 22:29:52,14.98339594,0.0002499,69.9996,269.8367,255.0532,105.0351,0.00011768,1.312e-05,0.0,0 STARLINK-5462,1 55674U 23021AY  24043.93741570  .00001312  00000-0  11768-3 0  9997,2 55674  69.9996 269.8367 0002499 255.0532 105.0351 14.98339594 56083,6950.163,96.106,573.765,570.291,0.0
55674.0,STARLINK-5462,PAYLOAD,2024-02-13 00:06:00,14.98341111,0.0002486,69.9997,269.6685,255.3871,104.7012,0.00013319,1.497e-05,0.0,0 STARLINK-5462,1 55674U 23021AY  24044.00417396  .00001497  00000-0  13319-3 0  9990,2 55674  69.9997 269.6685 0002486 255.3871 104.7012 14.98341111 55795,6950.159,96.106,573.751,570.296,0.0
55674.0,STARLINK-5462,PAYLOAD,2024-02-13 08:06:41,14.98331507,0.0002081,70.0006,268.8278,262.4905,97.6018,5.0932e-05,5.15e-06,0.0,0 STARLINK-5462,1 55674U 23021AY  24044.33798312  .00000515  00000-0  50932-4 0  9999,2 55674  70.0006 268.8278 0002081 262.4905  97.6018 14.98331507 55846,6950.188,96.107,573.5,570.607,0.0
55674.0,STARLINK-5462,PAYLOAD,2024-02-13 20:55:46,14.98323409,0.0002443,70.0,267.4811,259.5149,100.5734,-5.395e-05,-7.36e-06,0.0,0 STARLINK-5462,1 55674U 23021AY  24044.87206935 -.00000736  00000-0 -53950-4 0  9993,2 55674  70.0000 267.4811 0002443 259.5149 100.5734 14.98323409 55927,6950.213,96.107,573.776,570.38,0.0
55674.0,STARLINK-5462,PAYLOAD,2024-02-13 22:31:54,14.98322626,0.0002545,69.9994,267.3125,260.723,99.3642,-7.3909e-05,-9.74e-06,0.0,0 STARLINK-5462,1 55674U 23021AY  24044.93883038 -.00000974  00000-0 -73909-4 0  9995,2 55674  69.9994 267.3125 0002545 260.7230  99.3642 14.98322626 56239,6950.216,96.107,573.85,570.312,0.0
55674.0,STARLINK-5462,PAYLOAD,2024-02-14 08:08:43,14.98324685,0.0002849,69.9984,266.3006,264.8678,95.2156,-2.4751e-05,-3.88e-06,0.0,0 STARLINK-5462,1 55674U 23021AY  24045.33938823 -.00000388  00000-0 -24751-4 0  9993,2 55674  69.9984 266.3006 0002849 264.8678  95.2156 14.98324685 56291,6950.209,96.107,574.054,570.094,0.0
55674.0,STARLINK-5462,PAYLOAD,2024-02-14 22:33:55,14.98331237,0.0002978,69.9981,264.786,269.0024,91.0794,-0.00010313,-1.323e-05,0.0,0 STARLINK-5462,1 55674U 23021AY  24045.94022761 -.00001323  00000-0 -10313-3 0  9993,2 55674  69.9981 264.7860 0002978 269.0024  91.0794 14.98331237 56386,6950.189,96.107,574.124,569.984,0.0
55674.0,STARLINK-5462,PAYLOAD,2024-02-15 00:10:03,14.98333966,0.0003061,69.9979,264.6169,269.8059,90.2749,-8.4097e-05,-1.096e-05,0.0,0 STARLINK-5462,1 55674U 23021AY  24046.00698500 -.00001096  00000-0 -84097-4 0  9999,2 55674  69.9979 264.6169 0003061 269.8059  90.2749 14.98333966 56094,6950.181,96.107,574.173,569.918,0.0
55674.0,STARLINK-5462,PAYLOAD,2024-02-15 14:35:16,14.98323746,0.000311,69.9976,263.1016,269.5076,90.5727,0.00015581,1.766e-05,0.0,0 STARLINK-5462,1 55674U 23021AY  24046.60782561  .00001766  00000-0  15581-3 0  9999,2 55674  69.9976 263.1016 0003110 269.5076  90.5727 14.98323746 56484,6950.212,96.107,574.239,569.916,0.0
55674.0,STARLINK-5462,PAYLOAD,2024-02-15 22:35:56,14.98328175,0.0003123,69.9977,262.2602,269.9617,90.1184,0.00014333,1.617e-05,0.0,0 STARLINK-5462,1 55674U 23021AY  24046.94162453  .00001617  00000-0  14333-3 0  9997,2 55674  69.9977 262.2602 0003123 269.9617  90.1184 14.98328175 56535,6950.199,96.107,574.234,569.893,0.0
55674.0,STARLINK-5462,PAYLOAD,2024-02-16 00:12:04,14.98329181,0.0003121,69.9977,262.0918,269.9517,90.1284,0.00015255,1.728e-05,0.0,0 STARLINK-5462,1 55674U 23021AY  24047.00838386  .00001728  00000-0  15255-3 0  9997,2 55674  69.9977 262.0918 0003121 269.9517  90.1284 14.98329181 56247,6950.195,96.107,574.23,569.891,0.0
55674.0,STARLINK-5462,PAYLOAD,2024-02-16 14:37:17,14.98328833,0.0003035,69.998,260.5766,270.3594,89.7217,8.8151e-05,9.59e-06,0.0,0 STARLINK-5462,1 55674U 23021AY  24047.60922645  .00000959  00000-0  88151-4 0  9996,2 55674  69.9980 260.5766 0003035 270.3594  89.7217 14.98328833 56636,6950.196,96.107,574.171,569.952,0.0
55674.0,STARLINK-5462,PAYLOAD,2024-02-16 21:01:49,14.98330846,0.0003056,69.9979,259.9033,270.4926,89.5883,8.4196e-05,9.12e-06,0.0,0 STARLINK-5462,1 55674U 23021AY  24047.87626552  .00000912  00000-0  84196-4 0  9997,2 55674  69.9979 259.9033 0003056 270.4926  89.5883 14.98330846 56674,6950.19,96.107,574.179,569.931,0.0
55674.0,STARLINK-5462,PAYLOAD,2024-02-17 00:14:05,14.98332458,0.0003045,69.9979,259.5666,270.5493,89.5317,9.9878e-05,1.099e-05,0.0,0 STARLINK-5462,1 55674U 23021AY  24048.00978403  .00001099  00000-0  99878-4 0  9998,2 55674  69.9979 259.5666 0003045 270.5493  89.5317 14.98332458 56392,6950.185,96.107,574.167,569.934,0.0
55674.0,STARLINK-5462,PAYLOAD,2024-02-17 14:39:18,14.98331899,0.0002968,69.998,258.0515,270.7163,89.3655,2.4115e-05,1.95e-06,0.0,0 STARLINK-5462,1 55674U 23021AY  24048.61062617  .00000195  00000-0  24115-4 0  9994,2 55674  69.9980 258.0515 0002968 270.7163  89.3655 14.98331899 56784,6950.187,96.107,574.115,569.989,0.0
55674.0,STARLINK-5462,PAYLOAD,2024-02-17 22:39:58,14.98332168,0.0002955,69.998,257.2096,271.037,89.045,3.308e-05,3.02e-06,0.0,0 STARLINK-5462,1 55674U 23021AY  24048.94442522  .00000302  00000-0  33080-4 0  9998,2 55674  69.9980 257.2096 0002955 271.0370  89.0450 14.98332168 56835,6950.186,96.107,574.105,569.997,0.0
55674.0,STARLINK-5462,PAYLOAD,2024-02-18 00:16:06,14.9833229,0.0002954,69.998,257.0413,271.0621,89.02,3.341e-05,3.06e-06,0.0,0 STARLINK-5462,1 55674U 23021AY  24049.01118502  .00000306  00000-0  33410-4 0  9996,2 55674  69.9980 257.0413 0002954 271.0621  89.0200 14.98332290 56541,6950.186,96.107,574.104,569.998,0.0
55674.0,STARLINK-5462,PAYLOAD,2024-02-18 14:41:18,14.98335371,0.000293,69.9979,255.5264,268.5138,91.5685,6.554e-05,6.89e-06,0.0,0 STARLINK-5462,1 55674U 23021AY  24049.61202092  .00000689  00000-0  65540-4 0  9993,2 55674  69.9979 255.5264 0002930 268.5138  91.5685 14.98335371 56935,6950.176,96.107,574.078,570.005,0.0
55674.0,STARLINK-5462,PAYLOAD,2024-02-18 22:41:58,14.98335902,0.0002926,69.9977,254.6845,269.5993,90.4831,6.8457e-05,7.24e-06,0.0,0 STARLINK-5462,1 55674U 23021AY  24049.94581955  .00000724  00000-0  68457-4 0  9997,2 55674  69.9977 254.6845 0002926 269.5993  90.4831 14.98335902 56989,6950.175,96.107,574.073,570.006,0.0
55674.0,STARLINK-5462,PAYLOAD,2024-02-19 06:42:39,14.9832871,0.0002979,69.9978,253.8427,268.6351,91.4467,3.8129e-05,3.62e-06,0.0,0 STARLINK-5462,1 55674U 23021AY  24050.27962468  .00000362  00000-0  38129-4 0  9998,2 55674  69.9978 253.8427 0002979 268.6351  91.4467 14.98328710 56731,6950.197,96.107,574.132,569.991,0.0
55674.0,STARLINK-5462,PAYLOAD,2024-02-19 14:43:19,14.98328391,0.0002915,69.9976,253.001,270.1795,89.903,1.4732e-05,8.3e-07,0.0,0 STARLINK-5462,1 55674U 23021AY  24050.61342514  .00000083  00000-0  14732-4 0  9994,2 55674  69.9976 253.0010 0002915 270.1795  89.9030 14.98328391 57081,6950.198,96.107,574.089,570.037,0.0
55674.0,STARLINK-5462,PAYLOAD,2024-02-19 22:44:00,14.98325554,0.0002951,69.9977,252.1594,269.6104,90.4717,-2.4061e-05,-3.8e-06,0.0,0 STARLINK-5462,1 55674U 23021AY  24050.94722781 -.00000380  00000-0 -24061-4 0  9996,2 55674  69.9977 252.1594 0002951 269.6104  90.4717 14.98325554 57139,6950.207,96.107,574.123,570.021,0.0
55674.0,STARLINK-5462,PAYLOAD,2024-02-20 06:44:40,14.9832711,0.0002975,69.9977,251.3177,271.8639,88.2179,2.969e-05,2.61e-06,0.0,0 STARLINK-5462,1 55674U 23021AY  24051.28102625  .00000261  00000-0  29690-4 0  9992,2 55674  69.9977 251.3177 0002975 271.8639  88.2179 14.98327110 56889,6950.202,96.107,574.135,569.999,0.0
55674.0,STARLINK-5462,PAYLOAD,2024-02-20 14:45:20,14.98332167,0.0002974,69.9977,250.476,269.7566,90.3252,2.1952e-05,1.69e-06,0.0,0 STARLINK-5462,1 55674U 23021AY  24051.61482274  .00000169  00000-0  21952-4 0  9990,2 55674  69.9977 250.4760 0002974 269.7566  90.3252 14.98332167 57235,6950.186,96.107,574.118,569.984,0.0
55674.0,STARLINK-5462,PAYLOAD,2024-02-20 22:46:01,14.98332078,0.0002997,69.9977,249.6341,269.7337,90.3478,-1.1724e-06,-1.07e-06,0.0,0 STARLINK-5462,1 55674U 23021AY  24051.94862285 -.00000107  00000-0 -11724-5 0  9991,2 55674  69.9977 249.6341 0002997 269.7337  90.3478 14.98332078 57287,6950.186,96.107,574.134,569.968,0.0
55674.0,STARLINK-5462,PAYLOAD,2024-02-21 06:46:41,14.98330721,0.0003036,69.9978,248.7927,270.0239,90.0572,5.701e-05,5.87e-06,0.0,0 STARLINK-5462,1 55674U 23021AY  24052.28242191  .00000587  00000-0  57010-4 0  9994,2 55674  69.9978 248.7927 0003036 270.0239  90.0572 14.98330721 57037,6950.191,96.107,574.166,569.946,0.0
55674.0,STARLINK-5462,PAYLOAD,2024-02-21 14:47:21,14.9833078,0.0003064,69.9977,247.9508,269.708,90.3728,0.00010145,1.118e-05,0.0,0 STARLINK-5462,1 55674U 23021AY  24052.61622028  .00001118  00000-0  10145-3 0  9990,2 55674  69.9977 247.9508 0003064 269.7080  90.3728 14.98330780 57381,6950.19,96.107,574.185,569.926,0.0
